0 COSMOS 2487
1 39194U 13032A   13282.52603878  .00005858  00000-0  24995-3 0  3307
2 39194 074.7382 007.0173 0001761 338.8882 097.6280 15.23093179 15808
0 COSMOS 2487
1 39194U 13032A   13282.86065978  .00005960  00000-0  25423-3 0  3319
2 39194 074.7384 006.3428 0001875 338.3033 132.1519 15.23097889 15851
0 COSMOS 2487
1 39194U 13032A   13283.17717255  .00006130  00000-0  26137-3 0  3320
2 39194 074.7380 005.7048 0001886 337.8546 067.3070 15.23103154 15903
0 COSMOS 2487
1 39194U 13032A   13283.32052366  .00006262  00000-0  26695-3 0  3338
2 39194 074.7381 005.4165 0001809 336.8813 133.9484 15.23106077 15920
0 COSMOS 2487
1 39194U 13032A   13283.56306000  .00020780  00000-0  87925-3 0  3346
2 39194 074.7393 004.9243 0002299 333.0833 027.0761 15.23125191 15962
0 COSMOS 2487
1 39194U 13032A   13283.65588072  .00006640  00000-0  28285-3 0  3351
2 39194 074.7385 004.7406 0001657 333.8302 175.0101 15.23113697 15979
0 COSMOS 2487
1 39194U 13032A   13283.84616226  .00006916  00000-0  29447-3 0  3363
2 39194 074.7386 004.3573 0001754 331.9775 139.7525 15.23118420 16003
0 COSMOS 2487
1 39194U 13032A   13284.16799266  .00007401  00000-0  31491-3 0  3378
2 39194 074.7383 003.7088 0001685 331.1981 104.4254 15.23127056 16056
0 COSMOS 2487
1 39194U 13032A   13284.51968750  .00008057  00000-0  34250-3 0  3388
2 39194 074.7388 002.9998 0001795 334.2370 228.9775 15.23137904 16109
0 COSMOS 2487
1 39194U 13032A   13285.50120370  .00009027  00000-0  38324-3 0  3414
2 39194 074.7389 001.0210 0002044 334.3722 208.3991 15.23161597 16250
0 COSMOS 2487
1 39194U 13032A   13285.81743068  .00009329  00000-0  39588-3 0  3422
2 39194 074.7390 000.3832 0002207 332.7051 143.2767 15.23169304 16300
0 COSMOS 2487
1 39194U 13032A   13286.20180156  .00009495  00000-0  40278-3 0  3432
2 39194 074.7387 359.6083 0002327 333.0824 089.6063 15.23177532 16369
0 COSMOS 2487
1 39194U 13032A   13286.53474603  .00009414  00000-0  39930-3 0  3446
2 39194 074.7388 358.9371 0002232 330.5328 116.9998 15.23183018 16411
0 COSMOS 2487
1 39194U 13032A   13286.86919270  .00009459  00000-0  40113-3 0  3451
2 39194 074.7387 358.2625 0002337 327.9997 152.6208 15.23189438 16461
0 COSMOS 2487
1 39194U 13032A   13287.18988027  .00009343  00000-0  39615-3 0  3461
2 39194 074.7388 357.6159 0002364 327.3226 110.9766 15.23194618 16514
0 COSMOS 2487
1 39194U 13032A   13287.52776382  .00009062  00000-0  38425-3 0  3475
2 39194 074.7388 356.9350 0002286 325.7250 164.5011 15.23198535 16566
0 COSMOS 2487
1 39194U 13032A   13287.85416825  .00008895  00000-0  37719-3 0  3483
2 39194 074.7385 356.2759 0002473 324.8092 154.4378 15.23203216 16614
0 COSMOS 2487
1 39194U 13032A   13288.17505705  .00008685  00000-0  36826-3 0  3491
2 39194 074.7387 355.6291 0002517 324.2564 113.7859 15.23207509 16663
0 COSMOS 2487
1 39194U 13032A   13288.51252700  .00008418  00000-0  35699-3 0  3506
2 39194 074.7389 354.9488 0002388 326.1437 161.5782 15.23211371 16715
0 COSMOS 2487
1 39194U 13032A   13288.84120634  .00008340  00000-0  35364-3 0  3516
2 39194 074.7387 354.2864 0002382 325.8194 163.4133 15.23216463 16767
0 COSMOS 2487
1 39194U 13032A   13289.15953185  .00008156  00000-0  34586-3 0  3527
2 39194 074.7384 353.6441 0002553 322.6946 111.3025 15.23220795 16819
0 COSMOS 2487
1 39194U 13032A   13289.49792515  .00008126  00000-0  34454-3 0  3534
2 39194 074.7385 352.9624 0002505 323.1936 165.5713 15.23226292 16865
0 COSMOS 2487
1 39194U 13032A   13289.82336134  .00008228  00000-0  34878-3 0  3546
2 39194 074.7385 352.3065 0002378 322.8169 149.7084 15.23232464 16919
0 COSMOS 2487
1 39194U 13032A   13290.14538936  .00008284  00000-0  35107-3 0  3556
2 39194 074.7384 351.6573 0002463 321.8307 115.7788 15.23238355 16966
0 COSMOS 2487
1 39194U 13032A   13290.35085580  .00008355  00000-0  35401-3 0  3568
2 39194 074.7383 351.2431 0002463 322.1767 161.6306 15.23242391 16992
0 COSMOS 2487
1 39194U 13032A   13290.67614191  .00008513  00000-0  36058-3 0  3575
2 39194 074.7382 350.5872 0002395 321.8297 144.9369 15.23249166 17047
0 COSMOS 2487
1 39194U 13032A   13290.80972444  .00008597  00000-0  36409-3 0  3581
2 39194 074.7380 350.3175 0002422 322.4735 156.4877 15.23252044 17067
0 COSMOS 2487
1 39194U 13032A   13291.19260079  .00008722  00000-0  36927-3 0  3594
2 39194 074.7380 349.5457 0002526 321.2107 096.3818 15.23259607 17121
0 COSMOS 2487
1 39194U 13032A   13291.53504002  .00008804  00000-0  37266-3 0  3609
2 39194 074.7379 348.8554 0002527 321.0098 173.5772 15.23266248 17178
0 COSMOS 2487
1 39194U 13032A   13291.86147225  .00009064  00000-0  38351-3 0  3611
2 39194 074.7378 348.1972 0002494 320.6787 163.1776 15.23273819 17224
0 COSMOS 2487
1 39194U 13032A   13292.18566897  .00009187  00000-0  38858-3 0  3626
2 39194 074.7379 347.5440 0002540 320.6003 140.2747 15.23280511 17277
0 COSMOS 2487
1 39194U 13032A   13292.52056441  .00009201  00000-0  38910-3 0  3630
2 39194 074.7379 346.8687 0002554 319.9809 176.5596 15.23286656 17328
0 COSMOS 2487
1 39194U 13032A   13292.84656426  .00009343  00000-0  39502-3 0  3640
2 39194 074.7378 346.2114 0002563 320.0229 163.4361 15.23293626 17370
0 COSMOS 2487
1 39194U 13032A   13293.17068115  .00009372  00000-0  39616-3 0  3658
2 39194 074.7378 345.5582 0002554 320.7431 139.3175 15.23299853 17422
0 COSMOS 2487
1 39194U 13032A   13293.50516692  .00009267  00000-0  39166-3 0  3667
2 39194 074.7377 344.8836 0002577 320.1489 173.3498 15.23305192 17472
0 COSMOS 2487
1 39194U 13032A   13293.83142624  .00009282  00000-0  39224-3 0  3676
2 39194 074.7378 344.2257 0002635 320.4385 161.4178 15.23311310 17525
0 COSMOS 2487
1 39194U 13032A   13294.15200865  .00009249  00000-0  39078-3 0  3685
2 39194 074.7379 343.5793 0002653 318.9783 120.1259 15.23317130 17570
0 COSMOS 2487
1 39194U 13032A   13294.48934678  .00009188  00000-0  38816-3 0  3699
2 39194 074.7377 342.8992 0002653 318.2617 169.9410 15.23322947 17628
0 COSMOS 2487
1 39194U 13032A   13294.85682870  .00009202  00000-0  38864-3 0  3706
2 39194 074.7377 342.1583 0002693 319.1091 023.4349 15.23329923 17678
0 COSMOS 2487
1 39194U 13032A   13295.20817949  .00009220  00000-0  38934-3 0  3712
2 39194 074.7377 341.4495 0002738 317.3003 151.1730 15.23336716 17733
0 COSMOS 2487
1 39194U 13032A   13295.53673811  .00009175  00000-0  38738-3 0  3728
2 39194 074.7378 340.7872 0002802 317.4317 152.0391 15.23342524 17788
0 COSMOS 2487
1 39194U 13032A   13295.86754751  .00009273  00000-0  39142-3 0  3737
2 39194 074.7376 340.1200 0002825 316.7296 166.0875 15.23349234 17831
0 COSMOS 2487
1 39194U 13032A   13296.18904230  .00009268  00000-0  39112-3 0  3744
2 39194 074.7375 339.4716 0002827 315.5997 129.5101 15.23355148 17882
